#dP2022 12 20  0  0  0.00000000      96 __u+U ITR00 EXT  IAC
## 2241 172800.00000000   900.00000000 59933 0.0000000000000
+  118   C06C07C08C09C10C11C12C13C14C16C19C20C21C22C23C24C25
+        C26C27C28C29C30C32C33C34C35C36C37C38C39C40C41C42C43
+        C44C45C46E01E02E03E04E05E07E08E09E10E11E12E13E14E15
+        E18E19E21E24E25E26E27E30E31E33E34E36G01G02G03G04G05
+        G06G07G08G09G10G11G12G13G14G15G16G17G18G19G20G21G22
+        G23G24G25G26G27G29G30G31G32J02J03J04R01R02R03R04R05
+        R07R08R09R11R12R13R14R15R17R18R19R20R21R22R24R25  0
++        10 11 11 10 11 11 10 10  9 10  9  9  9  9  8  9  8
++         9  9  8  7 10  8  9 10  9  9  9  9 10 11  7  8 10
++         9  7  8  8  7  9  9  9  9  9  9  9 10  8 10  9  9
++         9  8  8  7  9 10  8  9  9 10 10  9 10  8  8  8  9
++         9  9 10  9  9  9  9  8  7  9  8  8  9  8  8 10  9
++         7  7  8  8 10  8  9  8  8 10 10  9  9  8  7  8  8
++         8  7 10  7  8  9  8  9 10  7  7  9  9  7  9  7  0
%c M  cc GPS ccc cccc cccc cccc cccc ccccc ccccc ccccc ccccc
%c cc cc ccc ccc cccc cccc cccc cccc ccccc ccccc ccccc ccccc
%f  0.0000000  0.000000000  0.00000000000  0.000000000000000
%f  0.0000000  0.000000000  0.00000000000  0.000000000000000
%i    0    0    0    0      0      0      0      0         0
%i    0    0    0    0      0      0      0      0         0
/* IAC                                ULTRA-RAPID PREDICTION
/* S/V CLOCKS ARE ALIGNED TO GNSS TIME                      
/* G:C1WC2W R:C1PC2P E:C1XC5X C:C2IC6I J:C1CC2S             
/* PCV:IGS20_2239 OL/AL:FES2004  NONE     YN ORB:CoN CLK:CoN
*  2022 12 20 21  0  0.00000000
PC06 -16741.727233  36038.403152 -14465.298357    214.946217
PC07  -1484.046600  36355.565120 -21165.803791    132.890538
PC08  -8594.469623  19496.064703  36386.642279    524.086997
PC09 -11958.113805  34791.026332 -20677.923685   -778.192173
PC10   4022.005840  38145.272864 -16628.328183     47.843136
PC11 -10571.642132 -11568.472110 -23017.440543   -224.518852
PC12   3853.603770 -23669.616741 -14234.155086    355.966081
PC13   -880.193816  22196.223124  36001.582392    163.154902
PC14 -17762.318538 -19705.484372   8749.759469    285.404516
PC16 -20325.409183  35630.067071 -10209.683393     97.938162
PC19  19269.204552  11538.537141 -16534.129098   -902.135290
PC20  14196.892043  23979.578225  -1242.266265    798.491854
PC21   -140.393967 -22893.097013 -15954.944580   -924.308299
PC22  13467.273108  -8189.731983 -23032.844057   -729.305999
PC23 -24801.987680   7077.187361 -10643.071721   -871.145234
PC24 -11879.637594 -14935.410542  20332.989045   -648.411092
PC25 -26912.836932  -4257.808223   5955.134221     42.641524
PC26   7228.466287 -15720.549860  21884.853005    -52.689834
PC27 -10273.066522  25103.794041   6573.317160     69.255755
PC28 -19194.570634  17562.971122 -10082.559691     49.547630
PC29  17151.789187    854.502777  21993.402875     56.431328
PC30   4882.998828  19146.877228  19711.048700      1.238662
PC32    208.984364  22838.935634  16043.760651   -676.087669
PC33 -19372.211437 -11514.984568  16464.111574   -891.038692
PC34  -5876.437273 -18253.663363 -20272.441503     65.537505
PC35  18968.409229 -16901.498153  11501.866652    142.245269
PC36  26608.250682   5294.814029  -6549.805945   -753.171168
PC37  -9050.224546  15264.363226 -21523.139336   -874.584418
PC38 -16647.760081  19899.795323  33233.113299     46.350224
PC39 -20864.679211  36267.599544  -6051.075620     -1.109909
PC40  -6032.649344  32655.441662 -25880.515132    -10.635764
PC41 -13838.297999   7648.553635  23042.812242   -402.285813
PC42 -13597.055464 -24378.030003     86.003371   -889.915045
PC43 -16931.429801  -1776.923390 -22119.555367     31.149753
PC44   9425.582798 -25461.630885  -6386.657643    151.402420
PC45  24621.638319  -7228.380809  10998.248110    -37.214498
PC46  13852.320673  14300.382351 -19578.745677    -20.901877
PE01  -7872.978781  14752.779950 -24424.864166   -580.744951
PE02   7592.576653 -14917.504068  24408.937637      9.767742
PE03   8013.314355 -26679.811336 -10025.036211   -631.788322
PE04   4754.662487  28052.332275  -8173.946072    -18.428961
PE05  16359.929423  -9566.479261 -22740.510754   -113.142202
PE07 -15033.984524 -12892.271509  21997.327513     -8.746526
PE08  -4728.686760 -28063.443854   8142.790308     -5.987191
PE09  14873.365542  13058.971256 -22011.079003   -771.046442
PE10  12421.966043  11184.758389  24429.053644   -499.226409
PE11  21388.565428   3417.207975  20167.086542     92.303400
PE12   2365.533371  16644.215276  24368.808206   -344.140833
PE13 -20737.881792  -4028.871622 -20724.787087    430.296469
PE14 -10751.024297 -25040.143207 -17690.212072     90.229473
PE15  -2030.409257 -16699.544831 -24343.207526    699.612809
PE18   8585.383273  16903.078410  13796.718258   -604.960638
PE19  -9560.387468  25152.200375  12343.547386  -3693.419144
PE21 -22706.282550    995.012644 -18958.700134   -501.498620
PE24  25452.665220  15082.623809   1362.052601  -1012.761349
PE25  22894.465763   -716.092845  18760.518178   -595.374198
PE26 -27024.010670  11335.990005  -4138.293239  -1875.546893
PE27 -25747.055475 -14406.053554  -2267.355091   -467.972528
PE30 -12830.981889 -21252.796090  16093.868027  -1094.114267
PE31  13616.944722  21171.636716 -15578.053968   -511.183651
PE33 -17737.195106  19429.390346  13581.854295   -455.304783
PE34  17573.321282 -19486.144655 -13708.538611    -20.642454
PE36  27080.312350 -10844.397252   5019.878530   -478.313768
PG01   2941.790287 -16251.315571 -21027.520351    235.046881
PG02    961.379877  16384.625924  21556.148749   -631.966412
PG03  -6441.602469 -19226.464541 -17335.329805   -375.131816
PG04     95.077865 -25996.002079   5162.975047    -64.775616
PG05  -7829.919503  12876.330989  21697.253418   -108.840722
PG06 -24840.713140   4936.308817  -8069.046163    544.020989
PG07 -13087.841639 -10682.947718  21019.810512    271.499122
PG08   6527.439894 -24724.171066   6355.224556    -99.637392
PG09  -8630.312412 -20320.560725  14652.549677   -250.225078
PG10  23275.027592  10340.659772  -7925.281193    -16.957750
PG11 -23198.864265  12104.986004   4450.566666    -61.005558
PG12   3939.769603  19507.719420 -17914.321644   -318.313125
PG13 -13066.831801  19878.986396  11436.547905    445.386809
PG14 -22765.551556 -12403.716206  -6048.387537    -64.722588
PG15  -3399.959327  25508.974830   5497.927787     -2.400528
PG16  12815.807815  -8420.904475  21444.199606   -525.799119
PG17 -13184.094563  -7921.509482 -21201.790681    687.444288
PG18  15061.038618   8587.924481  20165.159010    -66.787517
PG19 -15657.382475   4548.290374 -21142.123942    253.175557
PG20 -18464.692508   5386.948674  18246.194458    462.280129
PG21  11068.817647 -17973.559417 -15020.635703    153.348709
PG22  15442.049886  -8291.262631 -19479.177344    388.832176
PG23  20674.434440  16562.715803   2794.136956      0.459233
PG24  -6003.500951  18584.864646 -18156.621362      6.652594
PG25  14069.391751  19873.262340 -11241.256873    403.881849
PG26  21405.256736   -150.157112  15829.853383    238.810069
PG27  12500.271810 -17142.766449  15492.615180    147.985008
PG29   4971.630159  22356.987640  13338.238864   -575.343310
PG30 -22431.906928  -1960.054336  14373.316512   -535.041621
PG31  25442.484745  -5503.439342  -6547.533268   -203.876922
PG32  14754.939488   4289.980777 -21523.273213   -336.551300
PJ02 -25399.276168  16127.774126 -24952.690572     -0.369029
PJ03 -26905.874853  32614.226846   3713.989156     -7.117417
PJ04 -26158.138214  26650.113815  25609.538479    115.792097
PR01  -2495.846408  18183.199310  17709.681244     19.892855
PR02   7450.813661  24424.179407    799.913669    -23.370045
PR03  12885.707831  15600.550862 -15533.074260     69.429177
PR04  10781.432849  -1567.920684 -23040.802363    169.359185
PR05   3024.541800 -17893.532526 -17903.999985    104.888087
PR07 -12950.285113 -14813.146969  16235.221729     46.474828
PR08 -10846.344424   1894.194163  23061.121319    -68.626908
PR09  -9629.746060 -12000.632811  20381.831451     94.108787
PR11 -23848.735959   -191.676094  -9056.625776     13.363064
PR12  -9975.977790   8642.227662 -21802.680925     23.768882
PR13   7792.425664  11840.925658 -21227.146955    -30.124018
PR14  23034.237338   8127.818113  -7322.344687     24.110512
PR15  23447.421870   -181.790291  10059.595276     92.235814
PR17  11150.970979   3089.077590  22752.302832    588.684450
PR18  18459.734178 -10975.164439  13746.411170     57.801463
PR19  17372.077487 -18645.505279  -1162.938452   -215.283516
PR20   4078.083897 -16352.018465 -19116.979523    -84.354010
PR21 -12107.394547  -1695.102467 -22375.878869   -359.046550
PR22 -19187.300477  10772.963824 -12882.041872     19.121080
PR24  -2744.204691  16420.856478  19343.376883    134.107273
PR25 -10879.618144  -4216.568981 -22670.817987     49.424405
EOF
